ORBCOMM FM103           
1 40091U 14040F   24129.37035806  .00001008  00000+0  26163-3 0  9992
2 40091  47.0046 127.2859 0002404 242.6352 117.4288 14.56550521505055
ORBCOMM FM114           
1 41179U 15081A   24129.47256469  .00001410  00000+0  35068-3 0  9998
2 41179  47.0041  36.0869 0001967 287.8258  72.2412 14.56578855445437
ORBCOMM FM119           
1 41180U 15081B   24129.44264834  .00001069  00000+0  27523-3 0  9999
2 41180  47.0010 305.4179 0001369 326.7591  33.3207 14.56539605446689
ORBCOMM FM105           
1 41181U 15081C   24129.53894738  .00000575  00000+0  21063-3 0  9996
2 41181  47.0011 271.6994 0002260 292.5316  67.5324 14.44365668442235
ORBCOMM FM110           
1 41182U 15081D   24129.44982130  .00001529  00000+0  37726-3 0  9994
2 41182  47.0031  35.6028 0001327 107.8134 252.2896 14.56570898445307
ORBCOMM FM118           
1 41183U 15081E   24129.42718027  .00001544  00000+0  38072-3 0  9997
2 41183  47.0054  36.0153 0001398 103.1610 256.9431 14.56559031445406
ORBCOMM FM112           
1 41184U 15081F   24129.48856899  .00001352  00000+0  33781-3 0  9993
2 41184  46.9992 304.4192 0001247 300.6086  59.4676 14.56581592446635
ORBCOMM FM113           
1 41185U 15081G   24129.46574116  .00001408  00000+0  35028-3 0  9999
2 41185  47.0011 304.7929 0000809 310.9533  49.1282 14.56576044446618
